STARLINK-34582          
1 64781U 25147AC  26068.74858824  .00023987  00000+0  81938-3 0  9993
2 64781  53.1591 242.2635 0000920  68.7864 291.3235 15.30200104 38693
KUIPER-00175            
1 67135U 25301C   26068.97960463  .00019968  00000+0  66732-3 0  9998
2 67135  51.8781  63.6978 0002279  50.5695 309.5490 15.30996371 13854
